SKYKRAFT-1A             
1 55054U 23001AX  26068.71064616  .00008177  00000+0  30069-3 0  9991
2 55054  97.3349 127.6290 0011277 121.5092 238.7251 15.28083228176529
STARLINK-31982          
1 60022U 24111G   26068.39675336 -.00001912  00000+0 -52451-4 0  9998
2 60022  53.1610  76.6335 0001312 104.9475 255.1672 15.30197424 99007
